{
    "links": {
        "self": "http://www.neowsapp.com/rest/v1/neo/3463173?api_key=iIulBulltgU6a56xZRHN4H3l9WmuAYTsLGpBGhQ2"
    },
    "id": "3463173",
    "neo_reference_id": "3463173",
    "name": "(2009 LU2)",
    "designation": "2009 LU2",
    "nasa_jpl_url": "http://ssd.jpl.nasa.gov/sbdb.cgi?sstr=3463173",
    "absolute_magnitude_h": 22.6,
    "estimated_diameter": {
        "kilometers": {
            "estimated_diameter_min": 0.0802703167,
            "estimated_diameter_max": 0.1794898848
        },
        "meters": {
            "estimated_diameter_min": 80.2703167283,
            "estimated_diameter_max": 179.4898847799
        },
        "miles": {
            "estimated_diameter_min": 0.049877647,
            "estimated_diameter_max": 0.1115298092
        },
        "feet": {
            "estimated_diameter_min": 263.3540659348,
            "estimated_diameter_max": 588.8775935812
        }
    },
    "is_potentially_hazardous_asteroid": false,
    "close_approach_data": [
        {
            "close_approach_date": "2009-06-30",
            "close_approach_date_full": "2009-Jun-30 18:43",
            "epoch_date_close_approach": 1246387380000,
            "relative_velocity": {
                "kilometers_per_second": "10.894795819",
                "kilometers_per_hour": "39221.2649485764",
                "miles_per_hour": "24370.5687676307"
            },
            "miss_distance": {
                "astronomical": "0.1881972086",
                "lunar": "73.2087141454",
                "kilometers": "28153901.546505682",
                "miles": "17494023.2123631316"
            },
            "orbiting_body": "Earth"
        },
        {
            "close_approach_date": "2066-12-14",
            "close_approach_date_full": "2066-Dec-14 20:59",
            "epoch_date_close_approach": 3059585940000,
            "relative_velocity": {
                "kilometers_per_second": "19.0668436456",
                "kilometers_per_hour": "68640.6371243119",
                "miles_per_hour": "42650.622550937"
            },
            "miss_distance": {
                "astronomical": "0.1083522432",
                "lunar": "42.1490226048",
                "kilometers": "16209264.792441984",
                "miles": "10071970.0985640192"
            },
            "orbiting_body": "Earth"
        },
        {
            "close_approach_date": "2071-12-28",
            "close_approach_date_full": "2071-Dec-28 23:41",
            "epoch_date_close_approach": 3218571660000,
            "relative_velocity": {
                "kilometers_per_second": "27.5354083139",
                "kilometers_per_hour": "99127.4699299216",
                "miles_per_hour": "61593.9548572893"
            },
            "miss_distance": {
                "astronomical": "0.3937437298",
                "lunar": "153.1663108922",
                "kilometers": "58903223.303935526",
                "miles": "36600765.7610052188"
            },
            "orbiting_body": "Earth"
        },
        {
            "close_approach_date": "2073-05-26",
            "close_approach_date_full": "2073-May-26 22:06",
            "epoch_date_close_approach": 3263061960000,
            "relative_velocity": {
                "kilometers_per_second": "28.1762025406",
                "kilometers_per_hour": "101434.3291459966",
                "miles_per_hour": "63027.3474629666"
            },
            "miss_distance": {
                "astronomical": "0.4299424418",
                "lunar": "167.2476098602",
                "kilometers": "64318473.515878966",
                "miles": "39965646.2111270908"
            },
            "orbiting_body": "Earth"
        },
        {
            "close_approach_date": "2125-08-20",
            "close_approach_date_full": "2125-Aug-20 10:57",
            "epoch_date_close_approach": 4911361020000,
            "relative_velocity": {
                "kilometers_per_second": "13.115573003",
                "kilometers_per_hour": "47216.0628107327",
                "miles_per_hour": "29338.2252503689"
            },
            "miss_distance": {
                "astronomical": "0.3276444168",
                "lunar": "127.4536781352",
                "kilometers": "49014906.870672216",
                "miles": "30456450.8450439408"
            },
            "orbiting_body": "Earth"
        }
    ],
    "orbital_data": {
        "orbit_id": "9",
        "orbit_determination_date": "2017-04-06 09:00:27",
        "first_observation_date": "2009-06-14",
        "last_observation_date": "2009-07-02",
        "data_arc_in_days": 18,
        "observations_used": 15,
        "orbit_uncertainty": "8",
        "minimum_orbit_intersection": ".00474874",
        "jupiter_tisserand_invariant": "4.562",
        "epoch_osculation": "2455002.5",
        "eccentricity": ".5105925418624502",
        "semi_major_axis": "1.414061156349056",
        "inclination": "10.30936823319549",
        "ascending_node_longitude": "75.08584782134994",
        "orbital_period": "614.1871355580301",
        "perihelion_distance": ".6920520761798358",
        "perihelion_argument": "278.3584536410575",
        "aphelion_distance": "2.136070236518276",
        "perihelion_time": "2455065.993160827754",
        "mean_anomaly": "322.7840822858918",
        "mean_motion": ".5861405737079073",
        "equinox": "J2000",
        "orbit_class": {
            "orbit_class_type": "APO",
            "orbit_class_description": "Near-Earth asteroid orbits which cross the Earth’s orbit similar to that of 1862 Apollo",
            "orbit_class_range": "a (semi-major axis) > 1.0 AU; q (perihelion) < 1.017 AU"
        }
    },
    "is_sentry_object": false
}